[Satellite]
VERSION=1.1
NAME=ALPHASAT
NICKNAME=ALPHASAT
TLE1=1 39215U 13038A   17185.22649422  .00000130  00000-0  00000-0 0  9992
TLE2=2 39215   1.7099  28.9426 0002091  72.6429 287.2033  1.00271172 14484
